[{"OBJECT_NAME":"STARLINK-1046","OBJECT_ID":"2019-074AQ","EPOCH":"2025-09-01T14:42:06.973344","MEAN_MOTION":15.06403326,"ECCENTRICITY":0.0001453,"INCLINATION":53.0565,"RA_OF_ASC_NODE":355.4247,"ARG_OF_PERICENTER":98.9864,"MEAN_ANOMALY":261.129,"EPHEMERIS_TYPE":0,"CLASSIFICATION_TYPE":"U","NORAD_CAT_ID":44751,"ELEMENT_SET_NO":999,"REV_AT_EPOCH":31969,"BSTAR":0.00054872426,"MEAN_MOTION_DOT":7.902e-5,"MEAN_MOTION_DDOT":0},{"OBJECT_NAME":"STARLINK-1047","OBJECT_ID":"2019-074AR","EPOCH":"2025-09-01T11:13:07.331808","MEAN_MOTION":15.27445736,"ECCENTRICITY":0.00036717,"INCLINATION":53.0708,"RA_OF_ASC_NODE":306.648,"ARG_OF_PERICENTER":5.4567,"MEAN_ANOMALY":354.6471,"EPHEMERIS_TYPE":0,"CLASSIFICATION_TYPE":"U","NORAD_CAT_ID":44752,"ELEMENT_SET_NO":999,"REV_AT_EPOCH":32037,"BSTAR":0.00049006245,"MEAN_MOTION_DOT":0.00013014,"MEAN_MOTION_DDOT":0},{"OBJECT_NAME":"STARLINK-1048","OBJECT_ID":"2019-074AS","EPOCH":"2025-09-01T12:08:11.378400","MEAN_MOTION":15.06385334,"ECCENTRICITY":0.00014977,"INCLINATION":53.0559,"RA_OF_ASC_NODE":315.9028,"ARG_OF_PERICENTER":99.6966,"MEAN_ANOMALY":260.4192,"EPHEMERIS_TYPE":0,"CLASSIFICATION_TYPE":"U","NORAD_CAT_ID":44753,"ELEMENT_SET_NO":999,"REV_AT_EPOCH":32023,"BSTAR":-5.8406799e-5,"MEAN_MOTION_DOT":-1.151e-5,"MEAN_MOTION_DDOT":0},{"OBJECT_NAME":"STARLINK-1053","OBJECT_ID":"2019-074AX","EPOCH":"2025-09-01T10:45:27.317376","MEAN_MOTION":15.53506955,"ECCENTRICITY":0.00027942,"INCLINATION":53.0436,"RA_OF_ASC_NODE":296.0008,"ARG_OF_PERICENTER":24.297,"MEAN_ANOMALY":335.8171,"EPHEMERIS_TYPE":0,"CLASSIFICATION_TYPE":"U","NORAD_CAT_ID":44758,"ELEMENT_SET_NO":999,"REV_AT_EPOCH":32052,"BSTAR":0.00070101581,"MEAN_MOTION_DOT":0.00045097,"MEAN_MOTION_DDOT":0},{"OBJECT_NAME":"STARLINK-1054","OBJECT_ID":"2019-074AY","EPOCH":"2025-09-01T14:00:01.999872","MEAN_MOTION":15.59064083,"ECCENTRICITY":0.0009322,"INCLINATION":53.0487,"RA_OF_ASC_NODE":326.1375,"ARG_OF_PERICENTER":296.3132,"MEAN_ANOMALY":327.1353,"EPHEMERIS_TYPE":0,"CLASSIFICATION_TYPE":"U","NORAD_CAT_ID":44759,"ELEMENT_SET_NO":999,"REV_AT_EPOCH":592,"BSTAR":0.0020426278,"MEAN_MOTION_DOT":0.001654,"MEAN_MOTION_DDOT":0},{"OBJECT_NAME":"STARLINK-1056","OBJECT_ID":"2019-074BA","EPOCH":"2025-09-01T14:00:01.999872","MEAN_MOTION":15.70748887,"ECCENTRICITY":0.00112983,"INCLINATION":53.047,"RA_OF_ASC_NODE":317.2367,"ARG_OF_PERICENTER":324.6281,"MEAN_ANOMALY":78.1235,"EPHEMERIS_TYPE":0,"CLASSIFICATION_TYPE":"U","NORAD_CAT_ID":44761,"ELEMENT_SET_NO":999,"REV_AT_EPOCH":585,"BSTAR":0.0010258015,"MEAN_MOTION_DOT":0.0013169,"MEAN_MOTION_DDOT":0},{"OBJECT_NAME":"STARLINK-1057","OBJECT_ID":"2019-074BB","EPOCH":"2025-09-01T14:00:01.999872","MEAN_MOTION":15.84450257,"ECCENTRICITY":0.00067188,"INCLINATION":53.0518,"RA_OF_ASC_NODE":290.402,"ARG_OF_PERICENTER":315.8893,"MEAN_ANOMALY":220.5346,"EPHEMERIS_TYPE":0,"CLASSIFICATION_TYPE":"U","NORAD_CAT_ID":44762,"ELEMENT_SET_NO":999,"REV_AT_EPOCH":588,"BSTAR":0.0013273833,"MEAN_MOTION_DOT":0.00321182,"MEAN_MOTION_DDOT":0},{"OBJECT_NAME":"STARLINK-1060","OBJECT_ID":"2019-074BE","EPOCH":"2025-09-01T14:00:01.999872","MEAN_MOTION":15.09190255,"ECCENTRICITY":8.613e-5,"INCLINATION":53.0545,"RA_OF_ASC_NODE":335.5241,"ARG_OF_PERICENTER":87.0817,"MEAN_ANOMALY":258.6064,"EPHEMERIS_TYPE":0,"CLASSIFICATION_TYPE":"U","NORAD_CAT_ID":44765,"ELEMENT_SET_NO":999,"REV_AT_EPOCH":563,"BSTAR":0.003381476,"MEAN_MOTION_DOT":0.00054471,"MEAN_MOTION_DDOT":0},{"OBJECT_NAME":"STARLINK-1063","OBJECT_ID":"2019-074BH","EPOCH":"2025-09-01T14:26:10.693824","MEAN_MOTION":15.0645439,"ECCENTRICITY":0.00017585,"INCLINATION":53.0559,"RA_OF_ASC_NODE":355.4692,"ARG_OF_PERICENTER":94.0815,"MEAN_ANOMALY":266.0376,"EPHEMERIS_TYPE":0,"CLASSIFICATION_TYPE":"U","NORAD_CAT_ID":44768,"ELEMENT_SET_NO":999,"REV_AT_EPOCH":31970,"BSTAR":0.0023844749,"MEAN_MOTION_DOT":0.00035467,"MEAN_MOTION_DDOT":0},{"OBJECT_NAME":"STARLINK-1067","OBJECT_ID":"2019-074BL","EPOCH":"2025-09-01T14:10:15.746592","MEAN_MOTION":15.06390545,"ECCENTRICITY":0.00013306,"INCLINATION":53.0553,"RA_OF_ASC_NODE":355.5208,"ARG_OF_PERICENTER":89.8659,"MEAN_ANOMALY":270.2483,"EPHEMERIS_TYPE":0,"CLASSIFICATION_TYPE":"U","NORAD_CAT_ID":44771,"ELEMENT_SET_NO":999,"REV_AT_EPOCH":31969,"BSTAR":0.00028725626,"MEAN_MOTION_DOT":3.999e-5,"MEAN_MOTION_DDOT":0},{"OBJECT_NAME":"STARLINK-1068","OBJECT_ID":"2019-074BM","EPOCH":"2025-09-01T12:21:28.741536","MEAN_MOTION":15.06400846,"ECCENTRICITY":0.00015167,"INCLINATION":53.055,"RA_OF_ASC_NODE":335.8609,"ARG_OF_PERICENTER":81.8087,"MEAN_ANOMALY":278.3074,"EPHEMERIS_TYPE":0,"CLASSIFICATION_TYPE":"U","NORAD_CAT_ID":44772,"ELEMENT_SET_NO":999,"REV_AT_EPOCH":31995,"BSTAR":0.00049687784,"MEAN_MOTION_DOT":7.127e-5,"MEAN_MOTION_DDOT":0},{"OBJECT_NAME":"STARLINK-1098","OBJECT_ID":"2020-001D","EPOCH":"2025-08-31T18:27:23.666688","MEAN_MOTION":16.02915582,"ECCENTRICITY":0.0003172,"INCLINATION":53.0443,"RA_OF_ASC_NODE":67.6502,"ARG_OF_PERICENTER":2.0609,"MEAN_ANOMALY":358.0434,"EPHEMERIS_TYPE":0,"CLASSIFICATION_TYPE":"U","NORAD_CAT_ID":44917,"ELEMENT_SET_NO":999,"REV_AT_EPOCH":31194,"BSTAR":0.0008402795,"MEAN_MOTION_DOT":0.00520153,"MEAN_MOTION_DDOT":0.00013440803},{"OBJECT_NAME":"STARLINK-1104","OBJECT_ID":"2020-001J","EPOCH":"2025-08-31T18:05:42.745344","MEAN_MOTION":16.04306715,"ECCENTRICITY":0.00011194,"INCLINATION":53.0465,"RA_OF_ASC_NODE":68.8139,"ARG_OF_PERICENTER":30.7625,"MEAN_ANOMALY":329.3472,"EPHEMERIS_TYPE":0,"CLASSIFICATION_TYPE":"U","NORAD_CAT_ID":44922,"ELEMENT_SET_NO":999,"REV_AT_EPOCH":31192,"BSTAR":0.00086520413,"MEAN_MOTION_DOT":0.0058202,"MEAN_MOTION_DDOT":0.00017103672},{"OBJECT_NAME":"STARLINK-1112","OBJECT_ID":"2020-001M","EPOCH":"2025-09-01T07:25:21.212256","MEAN_MOTION":15.43897798,"ECCENTRICITY":0.00069664,"INCLINATION":53.0537,"RA_OF_ASC_NODE":92.5173,"ARG_OF_PERICENTER":95.0373,"MEAN_ANOMALY":265.1428,"EPHEMERIS_TYPE":0,"CLASSIFICATION_TYPE":"U","NORAD_CAT_ID":44925,"ELEMENT_SET_NO":999,"REV_AT_EPOCH":31164,"BSTAR":0.0027154271,"MEAN_MOTION_DOT":0.00127043,"MEAN_MOTION_DDOT":0},{"OBJECT_NAME":"STARLINK-1114","OBJECT_ID":"2020-001P","EPOCH":"2025-08-31T22:57:20.180448","MEAN_MOTION":15.06401755,"ECCENTRICITY":0.00012671,"INCLINATION":53.0543,"RA_OF_ASC_NODE":118.3662,"ARG_OF_PERICENTER":92.8699,"MEAN_ANOMALY":267.2435,"EPHEMERIS_TYPE":0,"CLASSIFICATION_TYPE":"U","NORAD_CAT_ID":44927,"ELEMENT_SET_NO":999,"REV_AT_EPOCH":31125,"BSTAR":0.00023363241,"MEAN_MOTION_DOT":3.2e-5,"MEAN_MOTION_DDOT":0},{"OBJECT_NAME":"STARLINK-1123","OBJECT_ID":"2020-001S","EPOCH":"2025-09-01T08:51:48.633696","MEAN_MOTION":15.06394257,"ECCENTRICITY":0.00012543,"INCLINATION":53.0533,"RA_OF_ASC_NODE":116.5109,"ARG_OF_PERICENTER":121.2242,"MEAN_ANOMALY":238.887,"EPHEMERIS_TYPE":0,"CLASSIFICATION_TYPE":"U","NORAD_CAT_ID":44930,"ELEMENT_SET_NO":999,"REV_AT_EPOCH":31131,"BSTAR":0.00033727664,"MEAN_MOTION_DOT":4.745e-5,"MEAN_MOTION_DDOT":0}]
