STARLINK-1046           
1 44751U 19074AQ  25244.61258071  .00007902  00000+0  54872-3 0  9995
2 44751  53.0565 355.4247 0001453  98.9864 261.1290 15.06403326319693
STARLINK-1047           
1 44752U 19074AR  25244.46744597  .00013014  00000+0  49006-3 0  9996
2 44752  53.0708 306.6480 0003671   5.4567 354.6471 15.27445736320377
STARLINK-1048           
1 44753U 19074AS  25244.50568725 -.00001151  00000+0 -58407-4 0  9996
2 44753  53.0559 315.9028 0001497  99.6966 260.4192 15.06385334320238
STARLINK-1053           
1 44758U 19074AX  25244.44823284  .00045097  00000+0  70102-3 0  9998
2 44758  53.0436 296.0008 0002794  24.2970 335.8171 15.53506955320526
STARLINK-1054           
1 44759U 19074AY  25244.58335648  .00165400  00000+0  20426-2 0  9990
2 44759  53.0487 326.1375 0009322 296.3132 327.1353 15.59064083  5928
STARLINK-1056           
1 44761U 19074BA  25244.58335648  .00131690  00000+0  10258-2 0  9999
2 44761  53.0470 317.2367 0011298 324.6281  78.1235 15.70748887  5858
STARLINK-1057           
1 44762U 19074BB  25244.58335648  .00321182  00000+0  13274-2 0  9998
2 44762  53.0518 290.4020 0006718 315.8893 220.5346 15.84450257  5887
STARLINK-1060           
1 44765U 19074BE  25244.58335648  .00054471  00000+0  33815-2 0  9998
2 44765  53.0545 335.5241 0000861  87.0817 258.6064 15.09190255  5631
STARLINK-1063           
1 44768U 19074BH  25244.60151266  .00035467  00000+0  23845-2 0  9992
2 44768  53.0559 355.4692 0001758  94.0815 266.0376 15.06454390319707
STARLINK-1067           
1 44771U 19074BL  25244.59046003  .00003999  00000+0  28726-3 0  9995
2 44771  53.0553 355.5208 0001330  89.8659 270.2483 15.06390545319698
STARLINK-1068           
1 44772U 19074BM  25244.51491599  .00007127  00000+0  49688-3 0  9999
2 44772  53.0550 335.8609 0001516  81.8087 278.3074 15.06400846319955
STARLINK-1098           
1 44917U 20001D   25243.76902392  .00520153  13441-3  84028-3 0  9999
2 44917  53.0443  67.6502 0003172   2.0609 358.0434 16.02915582311946
STARLINK-1104           
1 44922U 20001J   25243.75396696  .00582020  17104-3  86520-3 0  9998
2 44922  53.0465  68.8139 0001119  30.7625 329.3472 16.04306715311925
STARLINK-1112           
1 44925U 20001M   25244.30927329  .00127043  00000+0  27154-2 0  9996
2 44925  53.0537  92.5173 0006966  95.0373 265.1428 15.43897798311644
STARLINK-1114           
1 44927U 20001P   25243.95648357  .00003200  00000+0  23363-3 0  9996
2 44927  53.0543 118.3662 0001267  92.8699 267.2435 15.06401755311259
STARLINK-1123           
1 44930U 20001S   25244.36931289  .00004745  00000+0  33728-3 0  9996
2 44930  53.0533 116.5109 0001254 121.2242 238.8870 15.06394257311317
